NORAD_CAT_ID,OBJECT_NAME,OBJECT_TYPE,EPOCH,MEAN_MOTION,ECCENTRICITY,INCLINATION,RA_OF_ASC_NODE,ARG_OF_PERICENTER,MEAN_ANOMALY,BSTAR,MEAN_MOTION_DOT,MEAN_MOTION_DDOT,TLE_LINE0,TLE_LINE1,TLE_LINE2,SEMIMAJOR_AXIS,PERIOD,APOGEE,PERIGEE,DECAYED
51745.0,STARLINK-3449,PAYLOAD,2023-05-19 12:03:25,15.08840235,0.0001191,53.2164,241.3627,89.4708,270.642,3.5222e-05,2.73e-06,0.0,0 STARLINK-3449,1 51745U 22016AH  23139.50237953  .00000273  00000-0  35222-4 0  9995,2 51745  53.2164 241.3627 0001191  89.4708 270.6420 15.08840235 68795,6917.88,95.438,540.569,538.921,0.0
51745.0,STARLINK-3449,PAYLOAD,2023-05-20 10:18:49,15.08838613,0.0001046,53.2156,237.201,83.9959,276.1152,6.5143e-05,7.49e-06,0.0,0 STARLINK-3449,1 51745U 22016AH  23140.42973926  .00000749  00000-0  65143-4 0  9998,2 51745  53.2156 237.2010 0001046  83.9959 276.1152 15.08838613 70065,6917.885,95.438,540.473,539.026,0.0
51745.0,STARLINK-3449,PAYLOAD,2023-05-20 11:54:12,15.08843515,0.0001262,53.2171,236.9028,92.7787,267.335,8.3327e-05,1.039e-05,0.0,0 STARLINK-3449,1 51745U 22016AH  23140.49597585  .00001039  00000-0  83327-4 0  9995,2 51745  53.2171 236.9028 0001262  92.7787 267.3350 15.08843515 68947,6917.87,95.437,540.608,538.862,0.0
51745.0,STARLINK-3449,PAYLOAD,2023-05-20 23:01:53,15.08848866,0.0001099,53.2158,234.8212,90.0962,270.0156,5.801e-05,6.36e-06,0.0,0 STARLINK-3449,1 51745U 22016AH  23140.95965110  .00000636  00000-0  58010-4 0  9992,2 51745  53.2158 234.8212 0001099  90.0962 270.0156 15.08848866 70142,6917.853,95.437,540.479,538.958,0.0
51745.0,STARLINK-3449,PAYLOAD,2023-05-21 08:34:13,15.08835959,0.0001168,53.216,233.0366,94.4515,265.661,1.2368e-05,-9.1e-07,0.0,0 STARLINK-3449,1 51745U 22016AH  23141.35710111 -.00000091  00000-0  12368-4 0  9998,2 51745  53.2160 233.0366 0001168  94.4515 265.6610 15.08835959 70206,6917.893,95.438,540.566,538.95,0.0
51745.0,STARLINK-3449,PAYLOAD,2023-05-21 11:44:59,15.08837189,0.0001353,53.2157,232.4436,101.4991,258.6153,2.9961e-05,1.89e-06,0.0,0 STARLINK-3449,1 51745U 22016AH  23141.48957979  .00000189  00000-0  29961-4 0  9991,2 51745  53.2157 232.4436 0001353 101.4991 258.6153 15.08837189 69092,6917.889,95.438,540.69,538.818,0.0
51745.0,STARLINK-3449,PAYLOAD,2023-05-21 22:52:41,15.08842608,8.14e-05,53.216,230.3625,95.1402,264.9683,2.1981e-05,6.2e-07,0.0,0 STARLINK-3449,1 51745U 22016AH  23141.95325498  .00000062  00000-0  21981-4 0  9992,2 51745  53.2160 230.3625 0000814  95.1402 264.9683 15.08842608 70294,6917.872,95.437,540.301,539.174,0.0
51745.0,STARLINK-3449,PAYLOAD,2023-05-22 08:25:01,15.08828533,0.0001066,53.216,228.5775,87.8067,272.3048,-5.9859e-05,-1.24e-05,0.0,0 STARLINK-3449,1 51745U 22016AH  23142.35070818 -.00001240  00000-0 -59859-4 0  9996,2 51745  53.2160 228.5775 0001066  87.8067 272.3048 15.08828533 70350,6917.915,95.438,540.518,539.043,0.0
51745.0,STARLINK-3449,PAYLOAD,2023-05-22 11:35:47,15.08835335,0.0001031,53.2159,227.9831,93.3886,266.7224,-0.00011544,-2.124e-05,0.0,0 STARLINK-3449,1 51745U 22016AH  23142.48318655 -.00002124  00000-0 -11544-3 0  9994,2 51745  53.2159 227.9831 0001031  93.3886 266.7224 15.08835335 69244,6917.895,95.438,540.473,539.046,0.0
51745.0,STARLINK-3449,PAYLOAD,2023-05-22 14:46:33,15.08837584,0.0001192,53.2159,227.388,93.863,266.2498,4.3429e-06,-2.19e-06,0.0,0 STARLINK-3449,1 51745U 22016AH  23142.61566132 -.00000219  00000-0  43429-5 0  9995,2 51745  53.2159 227.3880 0001192  93.8630 266.2498 15.08837584 70396,6917.888,95.438,540.577,538.928,0.0
51745.0,STARLINK-3449,PAYLOAD,2023-05-23 13:01:57,15.0883631,0.000113,53.2165,223.2223,88.8929,271.2193,3.8626e-06,-2.26e-06,0.0,0 STARLINK-3449,1 51745U 22016AH  23143.54302580 -.00000226  00000-0  38626-5 0  9994,2 51745  53.2165 223.2223 0001130  88.8929 271.2193 15.08836310 69400,6917.892,95.438,540.538,538.975,0.0
51745.0,STARLINK-3449,PAYLOAD,2023-05-24 04:55:48,15.08834141,0.0001149,53.216,220.25,83.2601,276.8522,0.00013949,1.933e-05,0.0,0 STARLINK-3449,1 51745U 22016AH  23144.20542496  .00001933  00000-0  13949-3 0  9994,2 51745  53.2160 220.2500 0001149  83.2601 276.8522 15.08834141 70630,6917.898,95.438,540.558,538.968,0.0
51745.0,STARLINK-3449,PAYLOAD,2023-05-26 09:23:32,15.08840075,0.0001244,53.2166,210.4389,77.0433,283.0698,8.2339e-07,-2.75e-06,0.0,0 STARLINK-3449,1 51745U 22016AH  23146.39134640 -.00000275  00000-0  82339-6 0  9995,2 51745  53.2166 210.4389 0001244  77.0433 283.0698 15.08840075 70965,6917.88,95.438,540.606,538.885,0.0
51745.0,STARLINK-3449,PAYLOAD,2023-05-27 10:49:42,15.08839985,0.0001105,53.2159,205.6795,90.9951,269.1168,3.6398e-05,2.92e-06,0.0,0 STARLINK-3449,1 51745U 22016AH  23147.45118398  .00000292  00000-0  36398-4 0  9995,2 51745  53.2159 205.6795 0001105  90.9951 269.1168 15.08839985 71123,6917.88,95.438,540.51,538.981,0.0
51745.0,STARLINK-3449,PAYLOAD,2023-05-28 05:54:20,15.08834879,0.0001083,53.2158,202.112,92.545,267.5666,1.1103e-05,-1.11e-06,0.0,0 STARLINK-3449,1 51745U 22016AH  23148.24606929 -.00000111  00000-0  11103-4 0  9993,2 51745  53.2158 202.1120 0001083  92.5450 267.5666 15.08834879 70113,6917.896,95.438,540.51,539.012,0.0
51745.0,STARLINK-3449,PAYLOAD,2023-05-28 20:12:48,15.08839547,0.0001036,53.2155,199.4353,89.496,270.6151,5.443e-05,5.79e-06,0.0,0 STARLINK-3449,1 51745U 22016AH  23148.84222558  .00000579  00000-0  54430-4 0  9998,2 51745  53.2155 199.4353 0001036  89.4960 270.6151 15.08839547 71331,6917.882,95.438,540.463,539.03,0.0
51745.0,STARLINK-3449,PAYLOAD,2023-05-29 10:31:16,15.08838533,0.0001105,53.2156,196.7594,92.1058,268.0061,2.1069e-05,4.8e-07,0.0,0 STARLINK-3449,1 51745U 22016AH  23149.43838809  .00000048  00000-0  21069-4 0  9999,2 51745  53.2156 196.7594 0001105  92.1058 268.0061 15.08838533 70294,6917.885,95.438,540.514,538.985,0.0
51745.0,STARLINK-3449,PAYLOAD,2023-05-29 20:03:35,15.08836679,0.0001113,53.2155,194.975,91.5351,268.5768,1.9175e-05,1.7e-07,0.0,0 STARLINK-3449,1 51745U 22016AH  23149.83582971  .00000017  00000-0  19175-4 0  9990,2 51745  53.2155 194.9750 0001113  91.5351 268.5768 15.08836679 70350,6917.891,95.438,540.526,538.986,0.0
51745.0,STARLINK-3449,PAYLOAD,2023-05-30 02:25:08,15.08835323,0.0001137,53.2155,193.7848,91.9076,268.2047,3.6519e-05,2.93e-06,0.0,0 STARLINK-3449,1 51745U 22016AH  23150.10079046  .00000293  00000-0  36519-4 0  9993,2 51745  53.2155 193.7848 0001137  91.9076 268.2047 15.08835323 71521,6917.895,95.438,540.546,538.973,0.0
51745.0,STARLINK-3449,PAYLOAD,2023-05-30 10:22:04,15.08835371,0.0001135,53.2155,192.2978,91.3853,268.7269,3.2662e-05,2.32e-06,0.0,0 STARLINK-3449,1 51745U 22016AH  23150.43199152  .00000232  00000-0  32662-4 0  9998,2 51745  53.2155 192.2978 0001135  91.3853 268.7269 15.08835371 70448,6917.895,95.438,540.545,538.974,0.0
51745.0,STARLINK-3449,PAYLOAD,2023-05-30 19:54:22,15.08837128,0.0001166,53.2155,190.5133,87.2699,272.8427,2.255e-06,-2.52e-06,0.0,0 STARLINK-3449,1 51745U 22016AH  23150.82943213 -.00000252  00000-0  22550-5 0  9995,2 51745  53.2155 190.5133 0001166  87.2699 272.8427 15.08837128 70509,6917.889,95.438,540.561,538.948,0.0
51745.0,STARLINK-3449,PAYLOAD,2023-05-31 10:12:51,15.08836745,0.0001145,53.2152,187.8365,86.7942,273.3181,3.3677e-05,2.48e-06,0.0,0 STARLINK-3449,1 51745U 22016AH  23151.42559269  .00000248  00000-0  33677-4 0  9991,2 51745  53.2152 187.8365 0001145  86.7942 273.3181 15.08836745 71726,6917.89,95.438,540.547,538.963,0.0
51745.0,STARLINK-3449,PAYLOAD,2023-05-31 19:45:09,15.08838049,0.0001148,53.2154,186.0525,86.0819,274.0305,4.0125e-05,3.51e-06,0.0,0 STARLINK-3449,1 51745U 22016AH  23151.82303217  .00000351  00000-0  40125-4 0  9996,2 51745  53.2154 186.0525 0001148  86.0819 274.0305 15.08838049 70652,6917.886,95.438,540.546,538.957,0.0
51745.0,STARLINK-3449,PAYLOAD,2023-06-01 08:28:14,15.0883949,0.0001152,53.2154,183.6736,84.9684,275.1439,6.084e-05,6.81e-06,0.0,0 STARLINK-3449,1 51745U 22016AH  23152.35295111  .00000681  00000-0  60840-4 0  9990,2 51745  53.2154 183.6736 0001152  84.9684 275.1439 15.08839490 70731,6917.882,95.438,540.544,538.95,0.0
51745.0,STARLINK-3449,PAYLOAD,2023-06-01 19:35:56,15.08841133,0.0001156,53.2156,181.5921,84.3663,275.7461,6.5422e-05,7.54e-06,0.0,0 STARLINK-3449,1 51745U 22016AH  23152.81662982  .00000754  00000-0  65422-4 0  9997,2 51745  53.2156 181.5921 0001156  84.3663 275.7461 15.08841133 71932,6917.877,95.437,540.542,538.942,0.0
51745.0,STARLINK-3449,PAYLOAD,2023-06-02 08:19:01,15.08840961,0.0001139,53.2156,179.213,86.7685,273.3437,5.7322e-05,6.25e-06,0.0,0 STARLINK-3449,1 51745U 22016AH  23153.34654975  .00000625  00000-0  57322-4 0  9996,2 51745  53.2156 179.2130 0001139  86.7685 273.3437 15.08840961 70887,6917.877,95.437,540.53,538.955,0.0
51745.0,STARLINK-3449,PAYLOAD,2023-06-03 01:48:16,15.08838769,0.0001146,53.2153,175.942,85.7666,274.3457,6.9519e-06,-1.77e-06,0.0,0 STARLINK-3449,1 51745U 22016AH  23154.07519269 -.00000177  00000-0  69519-5 0  9998,2 51745  53.2153 175.9420 0001146  85.7666 274.3457 15.08838769 72120,6917.884,95.438,540.542,538.956,0.0
51745.0,STARLINK-3449,PAYLOAD,2023-06-03 08:09:49,15.08838287,0.0001123,53.2155,174.7524,88.8862,271.2259,7.5734e-07,-2.76e-06,0.0,0 STARLINK-3449,1 51745U 22016AH  23154.34015320 -.00000276  00000-0  75734-6 0  9994,2 51745  53.2155 174.7524 0001123  88.8862 271.2259 15.08838287 71031,6917.886,95.438,540.528,538.974,0.0
51745.0,STARLINK-3449,PAYLOAD,2023-06-04 08:00:36,15.08839847,0.0001121,53.2155,170.292,91.0046,269.1075,1.8493e-05,7e-08,0.0,0 STARLINK-3449,1 51745U 22016AH  23155.33375149  .00000007  00000-0  18493-4 0  9990,2 51745  53.2155 170.2920 0001121  91.0046 269.1075 15.08839847 72317,6917.881,95.438,540.521,538.97,0.0
51745.0,STARLINK-3449,PAYLOAD,2023-06-05 09:26:46,15.08835966,0.00011,53.2154,165.5343,86.8879,273.2239,3.3458e-05,2.45e-06,0.0,0 STARLINK-3449,1 51745U 22016AH  23156.39359481  .00000245  00000-0  33458-4 0  9990,2 51745  53.2154 165.5343 0001100  86.8879 273.2239 15.08835966 72478,6917.893,95.438,540.519,538.997,0.0
